# Made by eph2tle, compiled May  1 2018 10:14:32
# Run at Mon May 21 09:06:20 2018
#
#    The following TLEs (Two-Line Elements) were generated by fitting
# a numerically-integrated ephemeris,  based on the orbit given below,
# to the SDP4/SGP4 models.  Each TLE is good for the interval between
# its epoch and the epoch of the subsequent TLE (usually one day).
# The maximum deviation between the numerically integrated ephemerides
# and the TLE-based ephemeris, in kilometers,  is given for each TLE
# as the "worst residual".
#
#    This fitting is done using the 'eph2tle' code packaged with Find_Orb.
# The code has details on how the TLEs were computed :
#
#    https://github.com/Bill-Gray/find_orb/eph2tle.cpp
#
#    Be warned:  the error given is that between the numerically
# integrated ephems and the TLE model.  There will usually be at
# least some additional difference between the ephems and the actual
# motion of the satellite,  especially if the ephemerides are based
# on a short arc.  I don't really know exactly how accurate the Horizons
# ephems are,  and could imagine that some changes to the mission plan
# may occur.  I'll probably have to update these TLEs from time to time.
#
#    Also,  if you use a TLE outside the "correct" time range (between
# its epoch and that of the next epoch),  all bets are off.  It usually
# seems to be a decent fit,  at least for a while,  but I don't
# recommend doing it.
#
# Ephem range: 58259.000000 58289.041667 1.000000


# Times are all TDT
# Created from Horizons data by 'jpl2mpc', ver Apr 23 2018

# 1 NoradU COSPAR   Epoch.epoch     dn/dt/2  d2n/dt2/6 BSTAR    T El# C
# 2 NoradU Inclina RAAscNode Eccent  ArgPeri MeanAno  MeanMotion Rev# C

# Worst residual: 22.55 km
# MJD 58259.000000 (2018 May 21  0:00)
TESS
1 45435U 18038A   18141.49919926  .00000000  00000-0  00000-0 0  1414
2 45435 035.3993 286.4823 6286222 000.0004 172.4339 00.05838419    07

# Worst residual: 17.10 km
# MJD 58260.000000 (2018 May 22  0:00)
TESS
1 45435U 18038A   18142.49919927  .00000000  00000-0  00000-0 0  1416
2 45435 035.5117 286.4285 6270547 359.9265 193.8407 00.05824024    07

# Worst residual: 17.28 km
# MJD 58261.000000 (2018 May 23  0:00)
TESS
1 45435U 18038A   18143.49919928  .00000000  00000-0  00000-0 0  1418
2 45435 035.6054 286.4112 6262859 359.8212 215.1102 00.05809421    09

# Worst residual: 30.20 km
# MJD 58262.000000 (2018 May 24  0:00)
TESS
1 45435U 18038A   18144.49919929  .00000000  00000-0  00000-0 0  1410
2 45435 035.6038 286.4015 6251419 359.6117 236.4667 00.05783962    08

# Worst residual: 54.39 km
# MJD 58263.000000 (2018 May 25  0:00)
TESS
1 45435U 18038A   18145.49919929  .00000000  00000-0  00000-0 0  1411
2 45435 035.5091 286.3736 6233989 359.1370 258.1917 00.05727976    05

# Worst residual: 89.70 km
# MJD 58264.000000 (2018 May 26  0:00)
TESS
1 45435U 18038A   18146.49919930  .00000000  00000-0  00000-0 0  1414
2 45435 035.3782 286.3677 6219575 358.1071 280.4644 00.05602301    05

# Worst residual: 135.70 km
# MJD 58265.000000 (2018 May 27  0:00)
TESS
1 45435U 18038A   18147.49919931  .00000000  00000-0  00000-0 0  1416
2 45435 035.1960 286.4710 6258195 356.0637 303.4256 00.05306688    00

# Worst residual: 476.49 km
# MJD 58266.000000 (2018 May 28  0:00)
TESS
1 45435U 18038A   18148.49919932  .00000000  00000-0  00000-0 0  1418
2 45435 034.6722 286.8729 6554894 352.8905 326.1590 00.04521459    08

# Worst residual: 1740.81 km
# MJD 58267.000000 (2018 May 29  0:00)
TESS
1 45435U 18038A   18149.49919933  .00000000  00000-0  00000-0 0  1410
2 45435 035.4874 286.7075 6063387 001.0938 340.7437 00.06459788    08

# Worst residual: 386.50 km
# MJD 58268.000000 (2018 May 30  0:00)
TESS
1 45435U 18038A   18150.49919933  .00000000  00000-0  00000-0 0  1412
2 45435 035.5076 286.5367 5867392 359.9684 005.2539 00.06760522    02

# Worst residual: 62.02 km
# MJD 58269.000000 (2018 May 31  0:00)
TESS
1 45435U 18038A   18151.49919934  .00000000  00000-0  00000-0 0  1414
2 45435 035.5860 286.5768 5650180 359.5330 032.8250 00.07240134    06

# Worst residual: 24.09 km
# MJD 58270.000000 (2018 Jun  1  0:00)
TESS
1 45435U 18038A   18152.49919935  .00000000  00000-0  00000-0 0  1416
2 45435 035.5040 286.6820 5611809 359.0142 060.0734 00.07346726    01

# Worst residual: 7.21 km
# MJD 58271.000000 (2018 Jun  2  0:00)
TESS
1 45435U 18038A   18153.49919936  .00000000  00000-0  00000-0 0  1418
2 45435 035.3951 286.7199 5606120 358.9412 086.7517 00.07363339    01

# Worst residual: 4.82 km
# MJD 58272.000000 (2018 Jun  3  0:00)
TESS
1 45435U 18038A   18154.49919937  .00000000  00000-0  00000-0 0  1410
2 45435 035.3189 286.6830 5603013 359.0845 113.1175 00.07356744    02

# Worst residual: 7.42 km
# MJD 58273.000000 (2018 Jun  4  0:00)
TESS
1 45435U 18038A   18155.49919937  .00000000  00000-0  00000-0 0  1411
2 45435 035.2894 286.6091 5597946 359.2989 139.3087 00.07344505    05

# Worst residual: 8.20 km
# MJD 58274.000000 (2018 Jun  5  0:00)
TESS
1 45435U 18038A   18156.49919938  .00000000  00000-0  00000-0 0  1413
2 45435 035.2847 286.5379 5590421 359.5036 165.4084 00.07331869    04

# Worst residual: 7.82 km
# MJD 58275.000000 (2018 Jun  6  0:00)
TESS
1 45435U 18038A   18157.49919939  .00000000  00000-0  00000-0 0  1415
2 45435 035.2655 286.4844 5579179 359.6540 191.4959 00.07319086    02

# Worst residual: 10.64 km
# MJD 58276.000000 (2018 Jun  7  0:00)
TESS
1 45435U 18038A   18158.49919940  .00000000  00000-0  00000-0 0  1418
2 45435 035.2000 286.4346 5561722 359.7073 217.6801 00.07302187    01

# Worst residual: 22.24 km
# MJD 58277.000000 (2018 Jun  8  0:00)
TESS
1 45435U 18038A   18159.49919941  .00000000  00000-0  00000-0 0  1410
2 45435 035.0850 286.3638 5536604 359.5749 244.1175 00.07270764    08

# Worst residual: 44.85 km
# MJD 58278.000000 (2018 Jun  9  0:00)
TESS
1 45435U 18038A   18160.49919941  .00000000  00000-0  00000-0 0  1412
2 45435 034.9528 286.2745 5510859 359.0946 270.9694 00.07203868    08

# Worst residual: 65.55 km
# MJD 58279.000000 (2018 Jun 10  0:00)
TESS
1 45435U 18038A   18161.49919942  .00000000  00000-0  00000-0 0  1414
2 45435 034.8317 286.2172 5511141 358.0777 298.2714 00.07057749    04

# Worst residual: 183.25 km
# MJD 58280.000000 (2018 Jun 11  0:00)
TESS
1 45435U 18038A   18162.49919943  .00000000  00000-0  00000-0 0  1416
2 45435 034.6811 286.3192 5621314 356.5993 325.5892 00.06710894    08

# Worst residual: 364.35 km
# MJD 58281.000000 (2018 Jun 12  0:00)
TESS
1 45435U 18038A   18163.49919944  .00000000  00000-0  00000-0 0  1418
2 45435 034.4503 286.3639 5838009 358.2778 349.3979 00.06399809    00

# Worst residual: 155.68 km
# MJD 58282.000000 (2018 Jun 13  0:00)
TESS
1 45435U 18038A   18164.49919945  .00000000  00000-0  00000-0 0  1410
2 45435 034.5607 286.2249 5644226 000.3940 013.6812 00.06924435    00

# Worst residual: 45.95 km
# MJD 58283.000000 (2018 Jun 14  0:00)
TESS
1 45435U 18038A   18165.49919945  .00000000  00000-0  00000-0 0  1411
2 45435 034.5765 286.3542 5534038 359.7625 040.6792 00.07187855    07

# Worst residual: 45.61 km
# MJD 58284.000000 (2018 Jun 15  0:00)
TESS
1 45435U 18038A   18166.49919946  .00000000  00000-0  00000-0 0  1413
2 45435 034.4354 286.5793 5497222 359.7388 067.0011 00.07217490    05

# Worst residual: 34.41 km
# MJD 58285.000000 (2018 Jun 16  0:00)
TESS
1 45435U 18038A   18167.49919947  .00000000  00000-0  00000-0 0  1415
2 45435 034.2359 286.7587 5453967 359.8921 093.1842 00.07207028    01

# Worst residual: 21.35 km
# MJD 58286.000000 (2018 Jun 17  0:00)
TESS
1 45435U 18038A   18168.49919948  .00000000  00000-0  00000-0 0  1417
2 45435 034.1279 286.7611 5416063 359.9786 119.4997 00.07197146    07

# Worst residual: 15.69 km
# MJD 58287.000000 (2018 Jun 18  0:00)
TESS
1 45435U 18038A   18169.49919948  .00000000  00000-0  00000-0 0  1418
2 45435 034.1475 286.6671 5395424 359.9994 145.8016 00.07190975    06

# Worst residual: 12.31 km
# MJD 58288.000000 (2018 Jun 19  0:00)
TESS
1 45435U 18038A   18170.49919949  .00000000  00000-0  00000-0 0  1411
2 45435 034.2351 286.5788 5389930 359.9812 171.9999 00.07187334    07
Worst residual in entire run: 1740.81 km on MJD 58267.0
       1     3     10    30    100   300   1K    3K    10K   km
     0     0     5     9     9     3     3     1     0     0
